CCSDS_OMM_VERS = 2.0
CREATION_DATE  = 
ORIGINATOR     = 

OBJECT_NAME    = STARLINK-35843
OBJECT_ID      = 2026-018T
CENTER_NAME    = EARTH
REF_FRAME      = TEME
TIME_SYSTEM    = UTC
MEAN_ELEMENT_THEORY = SGP/SGP4

EPOCH          = 2026-02-20T03:07:41.915136
MEAN_MOTION    = 15.75261281
ECCENTRICITY   = .0001769
INCLINATION    = 97.2831
RA_OF_ASC_NODE = 116.0713
ARG_OF_PERICENTER = 114.9461
MEAN_ANOMALY   = 245.1988

EPHEMERIS_TYPE = 0
CLASSIFICATION_TYPE = U
NORAD_CAT_ID   = 67606
ELEMENT_SET_NO = 999
REV_AT_EPOCH   = 454
BSTAR          = .11634E-2
MEAN_MOTION_DOT = .1776E-2
MEAN_MOTION_DDOT = 0

CCSDS_OMM_VERS = 2.0
CREATION_DATE  = 
ORIGINATOR     = 

OBJECT_NAME    = STARLINK-36351
OBJECT_ID      = 2026-018U
CENTER_NAME    = EARTH
REF_FRAME      = TEME
TIME_SYSTEM    = UTC
MEAN_ELEMENT_THEORY = SGP/SGP4

EPOCH          = 2026-02-20T04:00:03.000096
MEAN_MOTION    = 15.75185278
ECCENTRICITY   = .0001357
INCLINATION    = 97.2843
RA_OF_ASC_NODE = 116.1451
ARG_OF_PERICENTER = 74.7876
MEAN_ANOMALY   = 209.3426

EPHEMERIS_TYPE = 0
CLASSIFICATION_TYPE = U
NORAD_CAT_ID   = 67607
ELEMENT_SET_NO = 999
REV_AT_EPOCH   = 458
BSTAR          = -.24469E-3
MEAN_MOTION_DOT = -.36463E-3
MEAN_MOTION_DDOT = 0

CCSDS_OMM_VERS = 2.0
CREATION_DATE  = 
ORIGINATOR     = 

OBJECT_NAME    = STARLINK-36411
OBJECT_ID      = 2026-018V
CENTER_NAME    = EARTH
REF_FRAME      = TEME
TIME_SYSTEM    = UTC
MEAN_ELEMENT_THEORY = SGP/SGP4

EPOCH          = 2026-02-20T02:32:06.186624
MEAN_MOTION    = 15.80941101
ECCENTRICITY   = .0002315
INCLINATION    = 97.2853
RA_OF_ASC_NODE = 116.1030
ARG_OF_PERICENTER = 119.1155
MEAN_ANOMALY   = 241.0346

EPHEMERIS_TYPE = 0
CLASSIFICATION_TYPE = U
NORAD_CAT_ID   = 67608
ELEMENT_SET_NO = 999
REV_AT_EPOCH   = 454
BSTAR          = .13055E-2
MEAN_MOTION_DOT = .258982E-2
MEAN_MOTION_DDOT = 0

CCSDS_OMM_VERS = 2.0
CREATION_DATE  = 
ORIGINATOR     = 

OBJECT_NAME    = STARLINK-36312
OBJECT_ID      = 2026-018W
CENTER_NAME    = EARTH
REF_FRAME      = TEME
TIME_SYSTEM    = UTC
MEAN_ELEMENT_THEORY = SGP/SGP4

EPOCH          = 2026-02-20T04:00:03.000096
MEAN_MOTION    = 15.75166084
ECCENTRICITY   = .0001472
INCLINATION    = 97.2845
RA_OF_ASC_NODE = 116.1503
ARG_OF_PERICENTER = 109.5939
MEAN_ANOMALY   = 186.5443

EPHEMERIS_TYPE = 0
CLASSIFICATION_TYPE = U
NORAD_CAT_ID   = 67609
ELEMENT_SET_NO = 999
REV_AT_EPOCH   = 458
BSTAR          = -.28682E-4
MEAN_MOTION_DOT = -.4401E-4
MEAN_MOTION_DDOT = 0

CCSDS_OMM_VERS = 2.0
CREATION_DATE  = 
ORIGINATOR     = 

OBJECT_NAME    = STARLINK-36387
OBJECT_ID      = 2026-018X
CENTER_NAME    = EARTH
REF_FRAME      = TEME
TIME_SYSTEM    = UTC
MEAN_ELEMENT_THEORY = SGP/SGP4

EPOCH          = 2026-02-20T02:28:19.325280
MEAN_MOTION    = 15.80925712
ECCENTRICITY   = .0001408
INCLINATION    = 97.2857
RA_OF_ASC_NODE = 116.1068
ARG_OF_PERICENTER = 94.6114
MEAN_ANOMALY   = 265.5315

EPHEMERIS_TYPE = 0
CLASSIFICATION_TYPE = U
NORAD_CAT_ID   = 67610
ELEMENT_SET_NO = 999
REV_AT_EPOCH   = 454
BSTAR          = .12621E-2
MEAN_MOTION_DOT = .249905E-2
MEAN_MOTION_DDOT = 0

CCSDS_OMM_VERS = 2.0
CREATION_DATE  = 
ORIGINATOR     = 

OBJECT_NAME    = STARLINK-36636
OBJECT_ID      = 2026-018Y
CENTER_NAME    = EARTH
REF_FRAME      = TEME
TIME_SYSTEM    = UTC
MEAN_ELEMENT_THEORY = SGP/SGP4

EPOCH          = 2026-02-20T03:57:56.042208
MEAN_MOTION    = 15.80879244
ECCENTRICITY   = .0001916
INCLINATION    = 97.2870
RA_OF_ASC_NODE = 116.1687
ARG_OF_PERICENTER = 82.0921
MEAN_ANOMALY   = 278.0565

EPHEMERIS_TYPE = 0
CLASSIFICATION_TYPE = U
NORAD_CAT_ID   = 67611
ELEMENT_SET_NO = 999
REV_AT_EPOCH   = 455
BSTAR          = .54561E-3
MEAN_MOTION_DOT = .105956E-2
MEAN_MOTION_DDOT = 0

CCSDS_OMM_VERS = 2.0
CREATION_DATE  = 
ORIGINATOR     = 

OBJECT_NAME    = STARLINK-36407
OBJECT_ID      = 2026-018Z
CENTER_NAME    = EARTH
REF_FRAME      = TEME
TIME_SYSTEM    = UTC
MEAN_ELEMENT_THEORY = SGP/SGP4

EPOCH          = 2026-02-20T04:00:03.000096
MEAN_MOTION    = 15.75193768
ECCENTRICITY   = .0001531
INCLINATION    = 97.2848
RA_OF_ASC_NODE = 116.1669
ARG_OF_PERICENTER = 85.2989
MEAN_ANOMALY   = 246.8246

EPHEMERIS_TYPE = 0
CLASSIFICATION_TYPE = U
NORAD_CAT_ID   = 67612
ELEMENT_SET_NO = 999
REV_AT_EPOCH   = 463
BSTAR          = -.33018E-3
MEAN_MOTION_DOT = -.49106E-3
MEAN_MOTION_DDOT = 0

CCSDS_OMM_VERS = 2.0
CREATION_DATE  = 
ORIGINATOR     = 

OBJECT_NAME    = STARLINK-36597
OBJECT_ID      = 2026-018AA
CENTER_NAME    = EARTH
REF_FRAME      = TEME
TIME_SYSTEM    = UTC
MEAN_ELEMENT_THEORY = SGP/SGP4

EPOCH          = 2026-02-20T03:55:08.558400
MEAN_MOTION    = 15.80884549
ECCENTRICITY   = .0001859
INCLINATION    = 97.2852
RA_OF_ASC_NODE = 116.1766
ARG_OF_PERICENTER = 62.7090
MEAN_ANOMALY   = 297.4367

EPHEMERIS_TYPE = 0
CLASSIFICATION_TYPE = U
NORAD_CAT_ID   = 67613
ELEMENT_SET_NO = 999
REV_AT_EPOCH   = 455
BSTAR          = .73224E-3
MEAN_MOTION_DOT = .142887E-2
MEAN_MOTION_DDOT = 0

CCSDS_OMM_VERS = 2.0
CREATION_DATE  = 
ORIGINATOR     = 

OBJECT_NAME    = NEONSAT-1A
OBJECT_ID      = 2026-019A
CENTER_NAME    = EARTH
REF_FRAME      = TEME
TIME_SYSTEM    = UTC
MEAN_ELEMENT_THEORY = SGP/SGP4

EPOCH          = 2026-02-19T22:14:14.006400
MEAN_MOTION    = 15.07636571
ECCENTRICITY   = .0012173
INCLINATION    = 97.4106
RA_OF_ASC_NODE = 175.1425
ARG_OF_PERICENTER = 230.7622
MEAN_ANOMALY   = 129.2527

EPHEMERIS_TYPE = 0
CLASSIFICATION_TYPE = U
NORAD_CAT_ID   = 67614
ELEMENT_SET_NO = 999
REV_AT_EPOCH   = 314
BSTAR          = .21714E-3
MEAN_MOTION_DOT = .3252E-4
MEAN_MOTION_DDOT = 0

CCSDS_OMM_VERS = 2.0
CREATION_DATE  = 
ORIGINATOR     = 

OBJECT_NAME    = ELECTRON KICK STAGE R/B
OBJECT_ID      = 2026-019C
CENTER_NAME    = EARTH
REF_FRAME      = TEME
TIME_SYSTEM    = UTC
MEAN_ELEMENT_THEORY = SGP/SGP4

EPOCH          = 2026-02-19T20:51:34.605792
MEAN_MOTION    = 15.68297502
ECCENTRICITY   = .0162219
INCLINATION    = 97.4031
RA_OF_ASC_NODE = 176.7416
ARG_OF_PERICENTER = 187.0200
MEAN_ANOMALY   = 172.8791

EPHEMERIS_TYPE = 0
CLASSIFICATION_TYPE = U
NORAD_CAT_ID   = 67616
ELEMENT_SET_NO = 999
REV_AT_EPOCH   = 324
BSTAR          = .18737E-2
MEAN_MOTION_DOT = .448324E-2
MEAN_MOTION_DDOT = .61631E-4

CCSDS_OMM_VERS = 2.0
CREATION_DATE  = 
ORIGINATOR     = 

OBJECT_NAME    = STARLINK-36548
OBJECT_ID      = 2026-020A
CENTER_NAME    = EARTH
REF_FRAME      = TEME
TIME_SYSTEM    = UTC
MEAN_ELEMENT_THEORY = SGP/SGP4

EPOCH          = 2026-02-19T22:34:53.733216
MEAN_MOTION    = 15.76405715
ECCENTRICITY   = .0001158
INCLINATION    = 42.9968
RA_OF_ASC_NODE = 250.1525
ARG_OF_PERICENTER = 252.3981
MEAN_ANOMALY   = 107.6762

EPHEMERIS_TYPE = 0
CLASSIFICATION_TYPE = U
NORAD_CAT_ID   = 67617
ELEMENT_SET_NO = 999
REV_AT_EPOCH   = 328
BSTAR          = .99466E-3
MEAN_MOTION_DOT = .164959E-2
MEAN_MOTION_DDOT = 0

CCSDS_OMM_VERS = 2.0
CREATION_DATE  = 
ORIGINATOR     = 

OBJECT_NAME    = STARLINK-36601
OBJECT_ID      = 2026-020B
CENTER_NAME    = EARTH
REF_FRAME      = TEME
TIME_SYSTEM    = UTC
MEAN_ELEMENT_THEORY = SGP/SGP4

EPOCH          = 2026-02-19T21:42:45.168480
MEAN_MOTION    = 15.82518971
ECCENTRICITY   = .0003254
INCLINATION    = 42.9979
RA_OF_ASC_NODE = 249.8590
ARG_OF_PERICENTER = 300.6991
MEAN_ANOMALY   = 59.3560

EPHEMERIS_TYPE = 0
CLASSIFICATION_TYPE = U
NORAD_CAT_ID   = 67618
ELEMENT_SET_NO = 999
REV_AT_EPOCH   = 328
BSTAR          = .29532E-2
MEAN_MOTION_DOT = .689361E-2
MEAN_MOTION_DDOT = 0

